FENGYUN 1C DEB          
1 35163U 99025DMT 17345.73152092  .00000853  00000-0  20164-3 0  9994
2 35163  99.1293 321.0387 0121194   4.3772 355.8452 14.52843128513805
